YAOGAN-35 04C           
1 53526U 22100E   22251.64316694  .00007879  00000+0  32960-3 0  9990
2 53526  35.0009  82.5399 0004958  86.4956 273.6313 15.22852963  2998
STARLINK-4511           
1 53527U 22101A   22251.58334491 -.01120693  00000+0 -13227-1 0  9996
2 53527  53.2176  56.8968 0001438  49.4491 198.0051 15.63283376  1309
STARLINK-4503           
1 53528U 22101B   22251.58334491 -.01120828  00000+0 -13232-1 0  9993
2 53528  53.2175  56.8925 0001561  42.5154 204.2379 15.63276119  1309
STARLINK-4478           
1 53529U 22101C   22251.58334491 -.01120878  00000+0 -13225-1 0  9991
2 53529  53.2176  56.9022 0001552  42.8513 205.3036 15.63290798  1303
STARLINK-4482           
1 53530U 22101D   22251.58334491 -.01120927  00000+0 -13218-1 0  9990
2 53530  53.2176  56.9116 0001555  42.5005 207.0558 15.63305375  1301
STARLINK-4487           
1 53531U 22101E   22251.58334491 -.01120860  00000+0 -13221-1 0  9991
2 53531  53.2176  56.9075 0001538  43.4513 205.4043 15.63298120  1301
STARLINK-4483           
1 53532U 22101F   22251.58334491 -.01120801  00000+0 -13212-1 0  9997
2 53532  53.2176  56.9645 0001475  46.7652 203.4894 15.63314413  1301
STARLINK-4493           
1 53533U 22101G   22251.58334491 -.01120844  00000+0 -13209-1 0  9991
2 53533  53.2176  56.9674 0001419  50.2758 200.6793 15.63321683  1303
STARLINK-4488           
1 53534U 22101H   22251.58334491 -.01121576  00000+0 -13201-1 0  9997
2 53534  53.2176  56.9833 0001875  30.2471 223.5092 15.63351114  1305
STARLINK-4138           
1 53535U 22101J   22251.58334491 -.01120998  00000+0 -13203-1 0  9997
2 53535  53.2176  56.9729 0001506  44.7451 207.6109 15.63336227  1309
STARLINK-4053           
1 53536U 22101K   22251.58334491 -.00055822  00000+0 -39504-3 0  9994
2 53536  53.2161  56.7901 0001372  42.7456 285.1459 15.73253436  1308
STARLINK-4120           
1 53537U 22101L   22251.58334491 -.01121006  00000+0 -13207-1 0  9994
2 53537  53.2176  56.9680 0001493  45.5395 206.1162 15.63328882  1309
STARLINK-4118           
1 53538U 22101M   22251.58334491 -.00014101  00000+0 -96154-4 0  9996
2 53538  53.2158  56.7877 0001499  47.8975 280.6350 15.73214321  1300
STARLINK-4123           
1 53539U 22101N   22251.58334491 -.01120962  00000+0 -13199-1 0  9996
2 53539  53.2176  56.9782 0001446  48.2029 204.8534 15.63343515  1304
STARLINK-4486           
1 53540U 22101P   22251.58334491  .00006628  00000+0  51544-4 0  9996
2 53540  53.2163  56.7875 0001438  42.3591 287.2634 15.73227184  1303
STARLINK-4485           
1 53541U 22101Q   22251.58334491 -.01121204  00000+0 -13194-1 0  9994
2 53541  53.2176  56.9885 0001542  42.5824 211.8741 15.63358247  1304
STARLINK-4489           
1 53542U 22101R   22251.58334491  .00016214  00000+0  11952-3 0  9998
2 53542  53.2161  56.7842 0001652  41.3946 289.3701 15.73239242  1304
STARLINK-4297           
1 53543U 22101S   22251.58334491  .00024699  00000+0  17974-3 0  9995
2 53543  53.2161  56.7876 0001450  43.4273 285.5733 15.73218426  1308
STARLINK-4303           
1 53544U 22101T   22251.58334491  .00020022  00000+0  14662-3 0  9993
2 53544  53.2161  56.7822 0001469  41.8961 290.0868 15.73218733  1307
STARLINK-4475           
1 53545U 22101U   22251.58334491  .00019261  00000+0  14138-3 0  9995
2 53545  53.2162  56.7857 0001224  51.6170 278.5573 15.73192879  1303
STARLINK-4477           
1 53546U 22101V   22251.58334491  .00015709  00000+0  11590-3 0  9998
2 53546  53.2165  55.6979 0001853  37.8744 100.0131 15.73247308  1308
STARLINK-4474           
1 53547U 22101W   22251.58334491  .00018487  00000+0  13577-3 0  9992
2 53547  53.2163  56.7839 0001421  47.6322 283.7667 15.73212898  1305
STARLINK-4513           
1 53548U 22101X   22251.58334491 -.00002358  00000+0 -12382-4 0  9999
2 53548  53.2177  56.7713 0001555  48.6001 285.7829 15.73205219  1306
STARLINK-4516           
1 53549U 22101Y   22251.58334491 -.00051105  00000+0 -36080-3 0  9994
2 53549  53.2154  56.7784 0001614  52.0956 280.5043 15.73270821  1306
STARLINK-4518           
1 53550U 22101Z   22251.58334491 -.00067712  00000+0 -48116-3 0  9990
2 53550  53.2157  56.7753 0001678  49.3333 285.6706 15.73235423  1306
STARLINK-4514           
1 53551U 22101AA  22251.58334491 -.00005306  00000+0 -33332-4 0  9997
2 53551  53.2162  56.7802 0001701  47.0285 286.1481 15.73248948  1308
STARLINK-4495           
1 53552U 22101AB  22251.58334491 -.00058625  00000+0 -41557-3 0  9997
2 53552  53.2161  56.7735 0001516  43.6680 293.1288 15.73234732  1307
STARLINK-4501           
1 53553U 22101AC  22251.58334491  .00019903  00000+0  14572-3 0  9999
2 53553  53.2159  56.7747 0001439  40.8474 294.7199 15.73227244  1300
STARLINK-4506           
1 53554U 22101AD  22251.58334491  .00020752  00000+0  15177-3 0  9996
2 53554  53.2156  56.7696 0001534  57.6522 280.2933 15.73221418  1300
STARLINK-4504           
1 53555U 22101AE  22251.58334491  .00018088  00000+0  13291-3 0  9991
2 53555  53.2155  56.7718 0001404  42.8380 293.3161 15.73218837  1308
STARLINK-4505           
1 53556U 22101AF  22251.58334491 -.00012280  00000+0 -83051-4 0  9994
2 53556  53.2157  56.7676 0001530  42.5392 296.6541 15.73241112  1304
STARLINK-4502           
1 53557U 22101AG  22251.58334491 -.00013265  00000+0 -90061-4 0  9998
2 53557  53.2157  56.7707 0001593  55.2818 282.0860 15.73244593  1302
STARLINK-4494           
1 53558U 22101AH  22251.58334491  .00012496  00000+0  93408-4 0  9990
2 53558  53.2159  56.7664 0001421  49.9964 290.3524 15.73176846  1303
STARLINK-4508           
1 53559U 22101AJ  22251.58334491 -.00013934  00000+0 -94821-4 0  9991
2 53559  53.2159  56.7693 0001584  48.3073 290.2292 15.73248807  1308
STARLINK-4564           
1 53560U 22101AK  22251.58334491  .00039313  00000+0  28373-3 0  9998
2 53560  53.2171  56.7586 0001330  39.0218 302.5583 15.73157337  1309
STARLINK-4563           
1 53561U 22101AL  22251.58334491  .00001839  00000+0  17500-4 0  9992
2 53561  53.2156  56.7656 0001504  41.7416 297.9955 15.73228467  1307
STARLINK-4565           
1 53562U 22101AM  22251.58334491 -.00069381  00000+0 -49280-3 0  9990
2 53562  53.2155  56.7601 0001615  44.6317 298.1232 15.73255889  1301
STARLINK-4561           
1 53563U 22101AN  22251.58334491  .00012484  00000+0  93146-4 0  9992
2 53563  53.2157  56.7641 0001716  51.5125 289.3945 15.73222371  1307
STARLINK-4577           
1 53564U 22101AP  22251.58334491  .00016794  00000+0  12372-3 0  9992
2 53564  53.2153  56.7568 0001539  53.2677 290.6928 15.73221383  1304
STARLINK-4575           
1 53565U 22101AQ  22251.58334491 -.00002546  00000+0 -13726-4 0  9990
2 53565  53.2177  56.7562 0001486  50.9424 291.1899 15.73205332  1309
STARLINK-4576           
1 53566U 22101AR  22251.58334491 -.00051574  00000+0 -36431-3 0  9993
2 53566  53.2156  56.7560 0001447  38.1631 306.9674 15.73262736  1307
STARLINK-4585           
1 53567U 22101AS  22251.58334491 -.00093025  00000+0 -66412-3 0  9993
2 53567  53.2158  56.7595 0001431  41.6529 301.7778 15.73256222  1307
STARLINK-4583           
1 53568U 22101AT  22251.58334491 -.00065799  00000+0 -46725-3 0  9996
2 53568  53.2155  56.7519 0001736  43.3133 303.6101 15.73239312  1301
STARLINK-4582           
1 53569U 22101AU  22251.58334491  .00022992  00000+0  16765-3 0  9994
2 53569  53.2156  56.7563 0001624  44.9858 299.5230 15.73219284  1301
STARLINK-4550           
1 53570U 22101AV  22251.58334491 -.00012836  00000+0 -87011-4 0  9997
2 53570  53.2156  56.7534 0001486  47.1797 299.1146 15.73242772  1304
STARLINK-4584           
1 53571U 22101AW  22251.58334491  .00010497  00000+0  79008-4 0  9994
2 53571  53.2155  56.7536 0001443  44.5648 301.1458 15.73232913  1301
STARLINK-4555           
1 53572U 22101AX  22251.58334491  .00017626  00000+0  12952-3 0  9990
2 53572  53.2158  56.7487 0001725  36.4086 312.2649 15.73239885  1309
STARLINK-4547           
1 53573U 22101AY  22251.58334491  .00011987  00000+0  89620-4 0  9992
2 53573  53.2155  56.7504 0001691  44.4618 303.0398 15.73221335  1309
STARLINK-4559           
1 53574U 22101AZ  22251.58334491 -.00058749  00000+0 -41599-3 0  9994
2 53574  53.2160  56.7477 0001638  41.2552 308.6227 15.73260702  1301
STARLINK-4551           
1 53575U 22101BA  22251.58334491  .00002519  00000+0  22361-4 0  9994
2 53575  53.2174  56.7446 0001578  43.7033 304.3910 15.73202416  1307
STARLINK-4581           
1 53576U 22101BB  22251.58334491  .00021928  00000+0  16009-3 0  9991
2 53576  53.2152  56.7439 0001670  39.4595 311.0247 15.73222439  1309
STARLINK-4553           
1 53577U 22101BC  22251.58334491 -.00016087  00000+0 -11013-3 0  9994
2 53577  53.2156  56.7463 0001701  44.6261 304.7070 15.73258086  1304
STARLINK-4556           
1 53578U 22101BD  22251.58334491  .00001841  00000+0  17508-4 0  9991
2 53578  53.2156  56.7443 0001541  34.8754 316.1753 15.73234340  1305
STARLINK-4580           
1 53579U 22101BE  22251.58334491  .00015537  00000+0  11477-3 0  9997
2 53579  53.2156  56.7424 0001569  41.2620 310.3925 15.73230345  1307
FALCON 9 DEB            
1 53580U 22101BF  22251.45476731  .04782373  12170-4  62299-3 0  9996
2 53580  53.2091  53.6211 0013349 113.7166 246.5282 16.34599670  3176
FALCON 9 DEB            
1 53581U 22101BG  22250.71525266  .03265829  12012-4  80547-3 0  9995
2 53581  53.2048  57.5448 0019301 104.9267 255.3916 16.27867067  3051
FALCON 9 DEB            
1 53582U 22101BH  22251.43717446  .04625555  12207-4  55012-3 0  9991
2 53582  53.2134  53.4959 0010700 108.4556 251.7655 16.35564874  3176
FALCON 9 DEB            
1 53583U 22101BJ  22251.43404270  .05210965  12218-4  59700-3 0  9996
2 53583  53.2147  53.4631 0010573 102.1671 258.0561 16.35909301  3179
CHUANGXIN 16 (CX-16)    
1 53586U 22102A   22251.55203905  .00001532  00000+0  13564-3 0  9997
2 53586  28.9976 262.5054 0004916  61.0147 299.0941 14.91667481  2466
